"name","description","address","phone","url","town"
"Grooming Room","Dog Clipping and Grooming in Dumfries","Main Road Locharbriggs Dumfries Dumfriesshire DG1 1RY","+441387711111","https://directory.independent.co.uk/company/grooming-room/3677665","Dumfries"
"Emmas Grooming","Dog Clipping and Grooming in Southampton","89b Burgess Road Southampton Hampshire SO16 7AJ","+447966661990","https://directory.independent.co.uk/company/emmas-grooming/3692752","Southampton"
"Tangles Dog Salon","Dog Clipping and Grooming in Coventry","141 Fir Tree Avenue Coventry West Midlands CV4 9FL","+442476474480","https://directory.independent.co.uk/company/tangles-dog-salon/4356432","Coventry"
"Victoria Elizabeth Properties Ltd","Dog Clipping and Grooming in Uxbridge","265 Long Lane Hillingdon Uxbridge Middlesex UB10 9JR","+441895254747","https://directory.independent.co.uk/company/victoria-elizabeth-properties-ltd/5265359","Uxbridge"
"Posh Paws 'N' Claws","Dog Clipping and Grooming in Northampton","12 Barnard Close Northampton Northamptonshire NN5 6LB","+441604751448","https://directory.independent.co.uk/company/posh-paws-n-claws/4695167","Northampton"
"Hot Dogz Grooming Salon","Dog Clipping and Grooming in Falkirk","67b Grahams Road Falkirk Stirlingshire FK2 7DJ","+441324630333","https://directory.independent.co.uk/company/hot-dogz-grooming-salon/3000615","Falkirk"
"Canine Cuts","Dog Clipping and Grooming in Aberdeen","37 Summerhill Drive Aberdeen Aberdeenshire AB15 6EQ","+441224311700","https://directory.independent.co.uk/company/canine-cuts/2405113","Aberdeen"
"Ragamuffins Leeds Ltd","Dog Clipping and Grooming in Leeds (West Yorkshire)","5c Marsh Street Rothwell Leeds West Yorkshire LS26 0AG","+441132822715","https://directory.independent.co.uk/company/ragamuffins-leeds-ltd/10551057","Rothwell"
"Indijazz","Dog Clipping and Grooming in Banbury","12 Hampton Drive Kings Sutton Banbury Oxfordshire OX17 3QR","+441295810300","https://directory.independent.co.uk/company/indijazz/12442557","Banbury"
"Sniff Canine Beauticians","Dog Clipping and Grooming in Ossett","47 Dale Street Ossett West Yorkshire WF5 9HE","+441924283388","https://directory.independent.co.uk/company/sniff-canine-beauticians/948894","Ossett"
"The Grooming Shed","Dog Clipping and Grooming in Inverkeithing","10 Mucklehill Park Inverkeithing Fife KY11 1BX","+447534963800","https://directory.independent.co.uk/company/the-grooming-shed/12443657","Inverkeithing"
"Tubds & Suds Pooch Parlour","Dog Clipping and Grooming in Nottingham","Bell Cottage 10a Station Road Kimberley Nottingham Nottinghamshire NG16 2NR","+441159459807","https://directory.independent.co.uk/company/tubds-andamp-suds-pooch-parlour/12334257","Kimberley"
"K-Nine Care","Dog Clipping and Grooming in Winsford (Cheshire)","85 Delamere Street Winsford Cheshire CW7 2LX","+441606861966","https://directory.independent.co.uk/company/k-nine-care/11551090","Winsford"
"Muddy Paws","Dog Clipping and Grooming in Surbiton","450 Ewell Road     Surbiton Surrey KT6 7EL","+442083906284","https://directory.independent.co.uk/company/muddy-paws/14907710","Surbiton"
"ALL4PAWS","Dog Clipping and Grooming in Huddersfield","Parkwood Road Golcar Huddersfield West Yorkshire HD7 4QW","+447903723462","https://directory.independent.co.uk/company/all4paws/21614781","Huddersfield"
"The Mobile Dog Groomers","Dog Clipping and Grooming in Norwich","8 Home Farm Business Park Norwich Road Marsham Norwich Norfolk NR10 5PQ","+447393738504","https://directory.independent.co.uk/company/the-mobile-dog-groomers/20007499","Norwich"
"Northenden Grooming Parlour","Dog Clipping and Grooming in Manchester","273 Palatine Road Manchester M22 4ET","+441619984038","https://directory.independent.co.uk/company/northenden-grooming-parlour/20825457","Manchester"
"Dazzling Dogs","Dog Clipping and Grooming in Birmingham","905 Aldridge Road Great Barr Birmingham West Midlands B44 8NS","+441213602709","https://directory.independent.co.uk/company/dazzling-dogs/20740657","Birmingham"
"Scented Bliss Candles","Dog Clipping and Grooming in Bicester","East Hawthorn Road Ambrosden Bicester Oxfordshire OX25 2SN","+447414678312","https://directory.independent.co.uk/company/scented-bliss-candles/20154057","Bicester"
"Naturally Blueberries","Dog Clipping and Grooming in Hartlepool","1b Thornville Road Hartlepool Cleveland TS26 8DZ","+441429861548","https://directory.independent.co.uk/company/naturally-blueberries/20263757","Hartlepool"
"Absolutely Furfect Dog Grooming","Dog Clipping and Grooming in Westerham","Kemsley Road Tatsfield Westerham Kent TN16 2BH","+442084050894","https://directory.independent.co.uk/company/absolutely-furfect-dog-grooming/20723457","Westerham"
"Mucky Pups","Dog Clipping and Grooming in Dronfield","31 Chesterfield Road Dronfield Derbyshire S18 2XA","+447429378112","https://directory.independent.co.uk/company/mucky-pups/20468757","Dronfield"
"Posh Paws","Dog Clipping and Grooming in Swadlincote","68 Linton Heath Linton Swadlincote Derbyshire DE12 6PD","+441283761827","https://directory.independent.co.uk/company/posh-paws/20680757","Swadlincote"
"SMARTPETS GROOMING AND INTERNATIONAL ANIMAL CARE COLLEGE","Dog Clipping and Grooming in Bangor (County Down)","Unit 41 8 Balloo Drive Dunlop Ind Units Behind Cascade Blinds Bangor County Down BT19 7QY","+447958005869","https://directory.independent.co.uk/company/smartpets-grooming-and-international-animal-care-college/3634750","Bangor"
"Jacko's Fluff Yer Pups Professional Dog Grooming Service ","Dog Clipping and Grooming in Driffield (North Humberside)","9 Thorndale Croft Wetwang Wetwang Driffield North Humberside YO25 9XZ","+447399511829","https://directory.independent.co.uk/company/jacko-s-fluff-yer-pups-professional-dog-grooming-service-/20008257","Driffield"
"Fido & Pooch Professional Dog Grooming","Dog Clipping and Grooming in Burntwood","1 Belvedere Close Burntwood Staffordshire WS7 4YR","+447598471677","https://directory.independent.co.uk/company/fido-andamp-pooch-professional-dog-grooming/19995957","Burntwood"
"Wish Bone Dog Grooming","Dog Clipping and Grooming in Southampton","Loperwood Park Farm Loperwood Lane Old Calmore Calmore Southampton Hampshire SO40 2RT","+447803289958","https://directory.independent.co.uk/company/wish-bone-dog-grooming/19151757","Southampton"
"Scruffs Dog Grooming ","Dog Clipping and Grooming in Heckmondwike","14 Oldfield Lane Heckmondwike West Yorkshire WF16 0JD","1924412114","https://directory.independent.co.uk/company/scruffs-dog-grooming-/6696530","Heckmondwike"
"Dollybags Dog Grooming Studio","Dog Clipping and Grooming in Fareham","22g Middle Road Fareham Hampshire PO14 3EG","+441489576118","https://directory.independent.co.uk/company/dollybags-dog-grooming-studio/7038106","Fareham"
"Waggytails","Dog Clipping and Grooming in Carlisle","Lough House Little Orton Carlisle Cumbria CA5 6EP","+441228576711","https://directory.independent.co.uk/company/waggytails/7037224","Carlisle"
"Sweeney Dogs Grooming Studio","Dog Clipping and Grooming in Rugby","Studio 6, The Locks Hillmorton Rugby CV21 4PP","+447717740097","https://directory.independent.co.uk/company/sweeney-dogs-grooming-studio/6764272","Rugby"
"Absolute Woof Dog Grooming","Dog Clipping and Grooming in Liverpool","11 Glovers Brow Liverpool Merseyside L32 2AE","+441515492050","https://directory.independent.co.uk/company/absolute-woof-dog-grooming/5591312","Liverpool"
"Posh Pooches","Dog Clipping and Grooming in Wallingford","12 Ford Lane Drayton St. Leonard Wallingford Oxfordshire OX10 7AS","+447572662552","https://directory.independent.co.uk/company/posh-pooches/20958057","Wallingford"
"Gentles Touch Dog Grooming","Dog Clipping and Grooming in Leigh (Lancashire)","233 Chapel Street Leigh Lancashire WN7 2AP","+447506466141","https://directory.independent.co.uk/company/gentles-touch-dog-grooming/20943457","Leigh"
"Mucky Mutz to Clean Cuts","Dog Clipping and Grooming in Worthing (West Sussex)","12 Broadwater Boulevard Worthing West Sussex BN14 8JE","+441903920254","https://directory.independent.co.uk/company/mucky-mutz-to-clean-cuts/20799857","Worthing"
"Mucky Mutts","Dog Clipping and Grooming in Liverpool","44 Ravenmeols Lane Liverpool Merseyside L37 4DG","+441704834932","https://directory.independent.co.uk/company/mucky-mutts/20616757","Liverpool"
"Kay9 Grooming Salon","Dog Clipping and Grooming in Crook (County Durham)","14 Church Street Crook County Durham DL15 9BG","+441388768700","https://directory.independent.co.uk/company/kay9-grooming-salon/20591057","Crook"
"Gracelands Mobile Dog Grooming","Dog Clipping and Grooming in Basildon","50 Bourne Avenue Basildon Essex SS15 6DY","+447366395791","https://directory.independent.co.uk/company/gracelands-mobile-dog-grooming/20392457","Basildon"
"Dorset Dog Grooming","Dog Clipping and Grooming in Blandford Forum","Unit 4 Milldown Business Centre Blandford Forum Dorset DT11 7TD","+441258722108","https://directory.independent.co.uk/company/dorset-dog-grooming/20362957","Blandford Forum"
"GOOD GROOMING","Dog Clipping and Grooming in Bristol","5 Heron Way Chipping Sodbury Bristol Avon BS37 6XW","+441454882742","https://directory.independent.co.uk/company/good-grooming/20026657","Bristol"
"Berry Edge Dog Grooming Ltd","Dog Clipping and Grooming in Consett","53 Fenwick Way Berry Edge Consett County Durham DH8 5FE","+441207507809","https://directory.independent.co.uk/company/berry-edge-dog-grooming-ltd/21187057","Consett"
"Perfect Pooches","Dog Clipping and Grooming in Durham","9 The Haven Langley Park Durham County Durham DH7 9UW","+447859738174","https://directory.independent.co.uk/company/perfect-pooches/21491557","Durham"
"Best Friends","Dog Clipping and Grooming in Manchester","110 Victoria Street Radcliffe Manchester M26 3BD","+447864170746","https://directory.independent.co.uk/company/best-friends/21492257","Manchester"
"Muttlins","Dog Clipping and Grooming in Glasgow","21 Lister Road Glasgow G52 4BH","+441418922333","https://directory.independent.co.uk/company/muttlins/21420857","Glasgow"
"Woof N Wash Ltd","Dog Clipping and Grooming in Newcastle-upon-Tyne","Arlington Avenue Kenton Newcastle upon Tyne Tyne and Wear NE3 4TS","+441912850023","https://directory.independent.co.uk/company/woof-n-wash-ltd/14611570","Newcastle upon Tyne"
"The Groom Studio","Dog Clipping and Grooming in Fleet (Hampshire)","17 Kings Road Fleet Hampshire GU51 3AA","+441252811411","https://directory.independent.co.uk/company/the-groom-studio/17558070","Fleet"
"Pups And Pooches","Dog Clipping and Grooming in Bradford (West Yorkshire)","1a  Woodhall Avenue Thornbury Bradford West Yorkshire BD3 7BY","+441274409474","https://directory.independent.co.uk/company/pups-and-pooches/16990670","Thornbury"
"Paws Grooming Parlour","Dog Clipping and Grooming in King's Lynn","52 Back Lane West Winch West Winch King's Lynn Norfolk PE33 0LA","+441553844538","https://directory.independent.co.uk/company/paws-grooming-parlour/18879870","King's Lynn"
"Sarah's Dog Grooming & Pet Shop","Dog Clipping and Grooming in Llandeilo","1 Carmarthen Street Llandeilo Dyfed SA19 6AE","Phone not found","https://directory.independent.co.uk/company/sarah-s-dog-grooming-andamp-pet-shop/16155870","Llandeilo"
"Top Dog","Dog Clipping and Grooming in Oswestry","Company of Border Veterinary Cen Maesbury Road Industrial Estate Oswestry Shropshire SY10 8HA","+441691670950","https://directory.independent.co.uk/company/top-dog/16504070","Oswestry"
"Pet On The Back Ltd","Dog Clipping and Grooming in Chertsey","43 Little Green Lane Chertsey Surrey KT16 9PN","Phone not found","https://directory.independent.co.uk/company/pet-on-the-back-ltd/16057870","Chertsey"
"Barkers-2-u","Dog Clipping and Grooming in Newton Abbot","5a Dolbeare Road Ashburton Newton Abbot Devon TQ13 7AS","+447975955781","https://directory.independent.co.uk/company/barkers-2-u/18349970","Ashburton"
"L A Spa N Groom","Dog Clipping and Grooming in Leicester","198B Uppingham Road Leicester Leicester Leicestershire LE5 0QG","+441162769883","https://directory.independent.co.uk/company/l-a-spa-n-groom/18361770","Leicester"
"Angie's Doris Dog Wash","Dog Clipping and Grooming in Ammanford","The Triangles Baptist Lane Ammanford Dyfed SA18 3DA","+447830436673","https://directory.independent.co.uk/company/angie-s-doris-dog-wash/17030970","Ammanford"
"Grant's Dog Grooming","Dog Clipping and Grooming in Johnstone","Ladeside Midton Road Howwood Howwood Johnstone Renfrewshire PA9 1AG","+447841116413","https://directory.independent.co.uk/company/grant-s-dog-grooming/16960370","Johnstone"
"Poppys Parlour","Dog Clipping and Grooming in Glasgow"," Glenwood Place Castelmilk Glasgow G45 9UH","+441416345888","https://directory.independent.co.uk/company/poppys-parlour/16793870","Glasgow"
"Paws","Dog Clipping and Grooming in Coldstream","Blinkbonny Birgham Coldstream Berwickshire TD12 4NF","+441890830305","https://directory.independent.co.uk/company/paws/12385170","Coldstream"
"ABOUT THE DOG","Dog Clipping and Grooming in Bristol","14 St. Mary Street Thornbury Thornbury Bristol Avon BS35 2AB","+441454501411","https://directory.independent.co.uk/company/about-the-dog/21778757","Bristol"
"Dogwood Grooming","Pet Services in Bournemouth","280 Wallisdown Road Bournemouth BH11 8PN","+441202535591","https://directory.independent.co.uk/company/dogwood-grooming/21374257","Bournemouth"
"Scizzor Yappy","Dog Clipping and Grooming in Wigan","499 Bolton Road Ashton-in-Makerfield Wigan Lancashire WN4 8TL","+447775474439","https://directory.independent.co.uk/company/scizzor-yappy/21616557","Wigan"
"Dial a Dog Wash Rugeley","Dog Clipping and Grooming in Walsall","Whitby Close Walsall West Midlands WS3 2UB","+441922445353","https://directory.independent.co.uk/company/dial-a-dog-wash-rugeley/21666757","Walsall"
"Carlas Pooch Parlour","Dog Clipping and Grooming in Penarth","35a Albert Road Penarth South Glamorgan CF64 1BY","Phone not found","https://directory.independent.co.uk/company/carlas-pooch-parlour/14762170","Penarth"
"Natural Animal","Dog Clipping and Grooming in Poole (Dorset)","175 Alder Road Poole Dorset BH12 4AN","+441202736444","https://directory.independent.co.uk/company/natural-animal/3945006","Poole"
"Dial a Dog Wash","Dog Clipping and Grooming in Dudley (West Midlands)","PO Box 5160 Dudley West Midlands DY1 1EW","+441902631896","https://directory.independent.co.uk/company/dial-a-dog-wash/5476394","Dudley"
"The Kinder Cut","Dog Clipping and Grooming in Hyde (Cheshire)","Unit L Roe Cross Industrial Park Mottram Hyde Cheshire SK14 6NB","+441457767376","https://directory.independent.co.uk/company/the-kinder-cut/5755010","Hyde"
"Tramps Dog Grooming Parlour","Dog Clipping and Grooming in Ilkeston","85 Heanor Road Ilkeston Derbyshire DE7 8DY","+441159324039","https://directory.independent.co.uk/company/tramps-dog-grooming-parlour/2582500","Ilkeston"
"Pets Place","Dog Clipping and Grooming in Castleford","10 Beancroft Road Castleford West Yorkshire WF10 5BW","+441977520152","https://directory.independent.co.uk/company/pets-place/3233085","Castleford"
"Robinsfield Grooming","Dog Clipping and Grooming in Lutterworth","Hillside Lutterworth Road Ullesthorpe Lutterworth Leicestershire LE17 5DR","+441455208228","https://directory.independent.co.uk/company/robinsfield-grooming/3489030","Lutterworth"
"Dapper Dogs","Dog Clipping and Grooming in Southport","Orchard Lane Southport Merseyside PR8 3RA","+447765634244","https://directory.independent.co.uk/company/dapper-dogs/16757870","Southport"
"Elizabeth's","Dog Clipping and Grooming in Wigan","46 Scot Lane Aspull Wigan Lancashire WN2 1YX","+441942833334","https://directory.independent.co.uk/company/elizabeth-s/1898948","Wigan"
"Spruce Your Pooch","Dog Clipping and Grooming in Cannock","Orchid Close Huntington Huntington Cannock Staffordshire WS12 4UH","+441543572712","https://directory.independent.co.uk/company/spruce-your-pooch/14623070","Cannock"
"Hair Of The Dog","Dog Clipping and Grooming in Walsall","Sutton Road Walsall West Midlands WS1 2PQ","+441634849011","https://directory.independent.co.uk/company/hair-of-the-dog/11134570","Walsall"
"Posh Dog Wash","Dog Clipping and Grooming in Farnborough (Hampshire)","24 Meadow Road Farnborough Hampshire GU14 8ES","+441252663128","https://directory.independent.co.uk/company/posh-dog-wash/10927670","Farnborough"
"A Country Parlour","Dog Clipping and Grooming in Battle (East Sussex)","5 Langton Close Battle East Sussex TN33 0XH","+447538958939","https://directory.independent.co.uk/company/a-country-parlour/12304570","Battle"
"Beautiful Dogs Ltd","Dog Clipping and Grooming in Pershore","Unit 1 Cowleys Way High Street Pershore Worcestershire WR10 1EU","+441386556640","https://directory.independent.co.uk/company/beautiful-dogs-ltd/18976370","Pershore"
"Poshdogz","Dog Clipping and Grooming in Lincoln","Dowding Road Lincoln Lincolnshire LN3 4PH","+441522548671","https://directory.independent.co.uk/company/poshdogz/14514470","Lincoln"
"The grooming rooms","Dog Clipping and Grooming in Leigh (Lancashire)","24 Leigh Road Leigh Lancashire WN7 1RX","+447964068509","https://directory.independent.co.uk/company/the-grooming-rooms/18794670","Leigh"
"The Doggy Haven","Dog Clipping and Grooming in Prescot","90 South Avenue Prescot Merseyside L34 1LZ","+441512891540","https://directory.independent.co.uk/company/the-doggy-haven/15235070","Prescot"
"Hannah's Dog Grooming","Dog Clipping and Grooming in Newport (Gwent)","144 Lower Dock Street Newport Gwent NP20 1EE","+441633211711","https://directory.independent.co.uk/company/hannah-s-dog-grooming/15180070","Newport"
"Winters","Dog Clipping and Grooming in Wantage","Charney Bassett Wantage Oxfordshire OX12 0EY","Phone not found","https://directory.independent.co.uk/company/winters/15472770","Wantage"
"K9 PET SERVICES & PET SUPPLIES","Dog Clipping and Grooming in Southend-on-Sea","24 Sunbury Court, North Shoebury, Shoeburyness Southend-on-Sea Essex SS38TR","+447709028696","https://directory.independent.co.uk/company/k9-pet-services-andamp-pet-supplies/6717158","Shoeburyness"
"Donnas Dog Grooming","Dog Clipping and Grooming in Llanelli","3 Carmarthen Road Cross Hands Llanelli Carmarthenshire SA14 6SP","+441269833741","https://directory.independent.co.uk/company/donnas-dog-grooming/6562804","Llanelli"
"Doggylicious Dog Grooming Service","Dog Clipping and Grooming in Nottingham","15 Labray Road Calverton Nottingham Nottinghamshire NG14 6LD","+441158477523","https://directory.independent.co.uk/company/doggylicious-dog-grooming-service/6537580","Nottingham"
"Dogz Body Grooming","Dog Clipping and Grooming in Stevenage","Waternodge Vets 1st Floor Maxwell Road  Stevenage Hertfordshire SG2 7DW","+441438743189","https://directory.independent.co.uk/company/dogz-body-grooming/6664040","Stevenage"
"Mobile Pampered Pooches","Dog Clipping and Grooming in Oldbury (West Midlands)","5 Clee Road Oldbury West Midlands B68 9RF","+441215523705","https://directory.independent.co.uk/company/mobile-pampered-pooches/1974026","Oldbury"
"Quality Dog Grooming Evesham Pershore","Dog Clipping and Grooming in Pershore","Mollys Cottage Nr Bishampton Evesham WR102NB","+441386860994","https://directory.independent.co.uk/company/quality-dog-grooming-evesham-pershore/3844352","Evesham"
"Alexandras Dog Grooming","Dog Clipping and Grooming in Warrington (Cheshire)","16 Littlecote Gardens Appleton Warrington Cheshire WA4 5DL","+441925756066","https://directory.independent.co.uk/company/alexandras-dog-grooming/3951286","Warrington"
"Wagtowers","Dog Clipping and Grooming in Stoke-on-Trent","1 Carlton Close Cheadle Stoke On Trent Staffordshire ST10 1LB","+441264394547","https://directory.independent.co.uk/company/wagtowers/6329734","Cheadle"
"Jaydonspire","Dog Clipping and Grooming in Chesterfield","Calow Green Calow Chesterfield Derbyshire S44 5XQ","+447968890687","https://directory.independent.co.uk/company/jaydonspire/5464628","Chesterfield"
"Designer Dogs","Dog Clipping and Grooming in Chichester","Northleigh Farm Main Road Birdham Chichester West Sussex PO20 7BY","+441243671892","https://directory.independent.co.uk/company/designer-dogs/5121793","Chichester"
"Four Paws Dog Grooming","Dog Clipping and Grooming in Richmond (Surrey)","17 Sheridan Road Richmond Surrey TW10 7NH","+448007310910","https://directory.independent.co.uk/company/four-paws-dog-grooming/3122160","Richmond"
"All Dogs","Dog Clipping and Grooming in Reading","1 Broomhill Bath Road Beenham Reading Berkshire RG7 5QB","+441189710411","https://directory.independent.co.uk/company/all-dogs/3653923","Reading"
"Snip 'N' Snap","Dog Clipping and Grooming in Tavistock","4 Lockyer Mews Paddons Row Tavistock Devon PL19 0HF","+441822618571","https://directory.independent.co.uk/company/snip-n-snap/3889702","Tavistock"
"Bowmeow","Dog Clipping and Grooming in Warrington (Cheshire)","7 Wood Lane Appleton Warrington Cheshire WA4 3DB","+441925210147","https://directory.independent.co.uk/company/bowmeow/3690818","Warrington"
"Becky's Professional Dog Grooming","Dog Clipping and Grooming in Dorking","23 Anstiebury Close Beare Green Dorking RH5 4RE","+447739263244","https://directory.independent.co.uk/company/becky-s-professional-dog-grooming/5477932","Dorking"
"Dial A Dog Wash","Dog Clipping and Grooming in Wareham","The Mews Sandford Road Wareham Dorset BH20 4DG","+441929556401","https://directory.independent.co.uk/company/dial-a-dog-wash/11946421","Wareham"
"Paws4thought","Dog Clipping and Grooming in Norwich","4 Upgate Street Carleton Rode Carleton Rode Norwich Norfolk NR16 1NJ","+441953860019","https://directory.independent.co.uk/company/paws4thought/14963170","Norwich"
"Dw Professional Groomers","Pet Services in Lutterworth","Ashby Road Gilmorton Gilmorton Lutterworth Leicestershire LE17 5LY","+447884068930","https://directory.independent.co.uk/company/dw-professional-groomers/19101970","Lutterworth"
"Its a Dogs Life","Dog Clipping and Grooming in Dunoon","99c Marine Parade Kirn Dunoon Argyll PA23 8HQ","+447534467661","https://directory.independent.co.uk/company/its-a-dogs-life/20627721","Dunoon"
"Styled To Pawfection","Dog Clipping and Grooming in Polegate","2 High Street Alfriston Alfriston Polegate East Sussex BN26 5SZ","+441323870002","https://directory.independent.co.uk/company/styled-to-pawfection/20632221","Polegate"
"Tops & Tails","Pet Services in Wakefield","8 The Spinney Wakefield Wakefield WF2 6JN","+441924253567","https://directory.independent.co.uk/company/tops-andamp-tails/19999021","Wakefield"
"Animal Antics","Dog Clipping and Grooming in Doncaster","71 Sandringham Road, Intake Doncaster South Yorkshire DN2 5HY","+441302368411","https://directory.independent.co.uk/company/animal-antics/5154998","Doncaster"
"Doggy Doo's","Dog Clipping and Grooming in Hitchin","2, Folly Path Hitchin Hertfordshire SG4 9DU","+447772077061","https://directory.independent.co.uk/company/doggy-doo-s/19670721","Hitchin"
"Alison's Dog Grooming Services","Dog Clipping and Grooming in York","Sugar Hill Farm Stockton Lane York North Yorkshire YO32 9UA","+441904422905","https://directory.independent.co.uk/company/alison-s-dog-grooming-services/12282821","York"
"BlueMoon pet Grooming","Dog Clipping and Grooming in Nottingham","1 Exbury Gardens  West Bridgford Nottingham NG2 7SL","+447944712334","https://directory.independent.co.uk/company/bluemoon-pet-grooming/7224482","Nottingham"
"Chloe's Dog Grooming","Dog Clipping and Grooming in Tunbridge Wells","29 Farmcombe Road Tunbridge Wells TN2 5DE","+447900817278","https://directory.independent.co.uk/company/chloe-s-dog-grooming/7281616","Tunbridge Wells"
"Heads And Tails","Dog Clipping and Grooming in Manchester","7 Stretford Road Urmston Manchester M41 9JY","+447539836716","https://directory.independent.co.uk/company/heads-and-tails/7270304","Manchester"
"Posh Pet Parlour","Dog Clipping and Grooming in Weybridge","Holland House Old Heath Road Weybridge KT13 8UF","+441932842000","https://directory.independent.co.uk/company/posh-pet-parlour/7269284","Weybridge"
"Happy Hound Haircuts Ltd","Dog Clipping and Grooming in Whitley Bay","12 St. Michaels Avenue New Hartley  New Hartley Whitley Bay Tyne and Wear NE25 0RP","+447976030955","https://directory.independent.co.uk/company/happy-hound-haircuts-ltd/19923521","Whitley Bay"
"Oh So Hairy Dog Grooming","Dog Clipping and Grooming in Mitcham","Lancaster Avenue Mitcham Surrey CR4 1QN","+447754987171","https://directory.independent.co.uk/company/oh-so-hairy-dog-grooming/20015121","Mitcham"
"Alermann Pet Care","Pet Services in Northallerton","Roughley Corner Farm Low Street Leeming Bar Northallerton North Yorkshire DL7 9LX","+441677424426","https://directory.independent.co.uk/company/alermann-pet-care/19688421","Northallerton"
"Elite Dog Grooming","Dog Clipping and Grooming in Sevenoaks","Bakers Avenue West Kingsdown Sevenoaks Kent TN15 6HA","+441474394922","https://directory.independent.co.uk/company/elite-dog-grooming/19693021","Sevenoaks"
"Groomingdales","Dog Clipping and Grooming in Burgess Hill","25 Ferndale Road Burgess Hill West Sussex RH15 0HB","+441444245517","https://directory.independent.co.uk/company/groomingdales/6849910","Burgess Hill"
"Groomers","Dog Clipping and Grooming in Halifax","Unit 4 Crossley Retail Park Halifax West Yorkshire HX1 5RA","+441422384132","https://directory.independent.co.uk/company/groomers/6704396","Halifax"
"Mutleys Makeovers","Dog Clipping and Grooming in Great Yarmouth","44 Baker Street Gorleston Great Yarmouth Norfolk NR31 6QT","+441493442442","https://directory.independent.co.uk/company/mutleys-makeovers/6882664","Gorleston"
"House Pets Spa - Dog Grooming","Dog Clipping and Grooming in Corby","2a Harrogate Court Greenhill Tise Corby Northamptonshire NN18 0PD","+447426111187","https://directory.independent.co.uk/company/house-pets-spa-dog-grooming/21123821","Corby"
"Muttley Crue Ltd","Dog Clipping and Grooming in Kidderminster","Foley Business Park Stourport Road Kidderminster Worcestershire DY11 7QL","+441562227273","https://directory.independent.co.uk/company/muttley-crue-ltd/21102921","Kidderminster"
"Diane's Grooming & Pet Centre","Dog Clipping and Grooming in Northampton","159 Weedon Road Northampton Northamptonshire NN5 5DA","+441604753823","https://directory.independent.co.uk/company/diane-s-grooming-andamp-pet-centre/21105321","Northampton"
"Canine Spa","Dog Clipping and Grooming in Birmingham","48 Westhouse Grove Kings Heath Birmingham West Midlands B14 6PT","+447580100841","https://directory.independent.co.uk/company/canine-spa/20586221","Birmingham"
"Windsor Pet Boutique & Spa","Dog Clipping and Grooming in Oldham","Ground Floor 328 Shaw Road Oldham Lancashire OL1 4WH","+441614658285","https://directory.independent.co.uk/company/windsor-pet-boutique-andamp-spa/20548321","Oldham"
"Mayfair Mutts","Dog Clipping and Grooming in South Shields","33 Frenchmans Way South Shields Tyne and Wear NE34 7TS","+447879702117","https://directory.independent.co.uk/company/mayfair-mutts/20551621","South Shields"
"Shampooch","Dog Clipping and Grooming in Northwich","3 Ash Road Sandiway Northwich Cheshire CW8 2NU","+447593856997","https://directory.independent.co.uk/company/shampooch/20342721","Northwich"
"Lisa's Dog Grooming Services","Dog Clipping and Grooming in Dorchester","Unit 2b Green Square Grove Trading Estate Dorchester Dorset DT1 1ST","+441305753414","https://directory.independent.co.uk/company/lisa-s-dog-grooming-services/20371721","Dorchester"
"Grooming Tails","Dog Clipping and Grooming in Runcorn","44 Hoylake Close, Murdishaw Liverpool WA7 6DU","+447765862756","https://directory.independent.co.uk/company/grooming-tails/20020521","Liverpool"
"Woofs N Scruffs","Dog Clipping and Grooming in Seaham","7a Cold Hesledon Industrial Estate Cold Hesledon Seaham County Durham SR7 8ST","+441915130990","https://directory.independent.co.uk/company/woofs-n-scruffs/21118721","Seaham"
"Milos Muddy Paws","Dog Clipping and Grooming in Sunderland (Tyne and Wear)","55 Keighley Avenue Sunderland Tyne and Wear SR5 4BS","+447856284533","https://directory.independent.co.uk/company/milos-muddy-paws/21350121","Sunderland"
"Mucky Mutz","Dog Clipping and Grooming in Basildon","1 Wykes Green Basildon Essex SS14 2PU","+447846078416","https://directory.independent.co.uk/company/mucky-mutz/21358221","Basildon"
"Wags in Style","Dog Clipping and Grooming in Kingston upon Thames (Surrey)","163 Park Road Kingston upon Thames Surrey KT2 6DQ","+442089748333","https://directory.independent.co.uk/company/wags-in-style/21414221","Kingston upon Thames"
"Grooming Marvellous","Dog Clipping and Grooming in Glasgow","1070 Cathcart Road Glasgow G42 9XW","+447765269839","https://directory.independent.co.uk/company/grooming-marvellous/21402521","Glasgow"
"Brighton Pet Spa Ltd","Dog Clipping and Grooming in Brighton","168 Lewes Road Brighton East Sussex BN2 3LD","+441273681636","https://directory.independent.co.uk/company/brighton-pet-spa-ltd/21370621","Brighton"
"Doggy Styles Grooming Studio","Dog Clipping and Grooming in Houghton le Spring","3 Thompsons Buildings Houghton le Spring Tyne and Wear DH4 4JF","+441915120505","https://directory.independent.co.uk/company/doggy-styles-grooming-studio/21281721","Houghton le Spring"
"Heads & Tails","Dog Clipping and Grooming in Kilmarnock","28 East Park Drive Kilmaurs Kilmarnock Ayrshire KA3 2QU","+441563540833","https://directory.independent.co.uk/company/heads-andamp-tails/18775118","Kilmarnock"
"Gone To The Dogs Mobile Dog Grooming Service","Dog Clipping and Grooming in Cheltenham","66 Upper Park Street Cheltenham Gloucestershire GL52 6SA","+441242690131","https://directory.independent.co.uk/company/gone-to-the-dogs-mobile-dog-grooming-service/12380818","Cheltenham"
"Posh Paws Dog Grooming","Dog Clipping and Grooming in Selby","43 Meadow Drive Thorpe Willoughby Selby North Yorkshire YO8 9PN","+441757290435","https://directory.independent.co.uk/company/posh-paws-dog-grooming/12375118","Selby"
"Animal Crackers","Dog Clipping and Grooming in Barnsley (South Yorkshire)","25 Dodworth Road Barnsley South Yorkshire S70 6DW","+441226291852","https://directory.independent.co.uk/company/animal-crackers/21762321","Barnsley"
"Presentable Pooches","Dog Clipping and Grooming in Newhaven (East Sussex)","12 High Street Newhaven East Sussex BN9 9PE","+441273512144","https://directory.independent.co.uk/company/presentable-pooches/21502321","Newhaven"
"Danni's Diamond Dogs","Dog Clipping and Grooming in Darwen","100 Sudell Road Darwen Lancashire BB3 3JA","+441254708291","https://directory.independent.co.uk/company/danni-s-diamond-dogs/21299521","Darwen"
"Protection Dogs Worldwide","Dog Training in Brough (North Humberside)","Sundown Station Lane, Broomfleet Broomfleet Brough North Humberside HU15 1RQ","+447858120456","https://directory.independent.co.uk/company/protection-dogs-worldwide/20253321","Brough"
